{"epoch":1784902576,"count":18312,"objects":[{"id":"29228","name":"RESURS DK-1","type":"PAYLOAD","l1":"1 29228U 06021A   26205.31589494  .00001851  00000-0  10964-3 0  9998","l2":"2 29228  69.9299 243.4302 0007609 261.5867  98.4437 15.13345634108193"},{"id":"31598","name":"SKYMED 1","type":"PAYLOAD","l1":"1 31598U 07023A   26205.29440332  .00003390  00000-0  29782-3 0  9996","l2":"2 31598  97.8863  37.4659 0001911  91.3853 268.7587 14.97262090 35342"},{"id":"31792","name":"COSMOS 2428","type":"PAYLOAD","l1":"1 31792U 07029A   26205.31147248  .00000366  00000-0  22232-3 0  9994","l2":"2 31792  70.9381 276.5324 0007366  63.1743 297.0130 14.12941208983393"},{"id":"33504","name":"KORONAS-FOTON","type":"PAYLOAD","l1":"1 33504U 09003A   26205.29300258  .00016013  00000-0  32120-3 0  9993","l2":"2 33504  82.4304 133.5328 0011220  33.4440 326.7515 15.46487529966839"},{"id":"39358","name":"SJ-16","type":"PAYLOAD","l1":"1 39358U 13057A   26205.30448688  .00001338  00000-0  13222-3 0  9998","l2":"2 39358  74.9728 286.3806 0015402 142.5300 217.6966 14.92689333691884"},{"id":"39766","name":"ALOS 2","type":"PAYLOAD","l1":"1 39766U 14029A   26205.26960712  .00000913  00000-0  12914-3 0  9998","l2":"2 39766  97.9223 301.9035 0001596  94.6883 265.4511 14.79475356657064"},{"id":"41038","name":"YAOGAN 29","type":"PAYLOAD","l1":"1 41038U 15069A   26205.35236884  .00000085  00000-0  17094-4 0  9999","l2":"2 41038  98.0026 234.0415 0000096 158.3397 201.7820 14.83110397576132"},{"id":"41337","name":"ASTRO H","type":"PAYLOAD","l1":"1 41337U 16012A   26205.30160720  .00002391  00000-0  13522-3 0  9993","l2":"2 41337  30.9974 194.4619 0009697 266.3089  93.6441 15.10662752572906"},{"id":"42758","name":"HXMT","type":"PAYLOAD","l1":"1 42758U 17034A   26205.29605152  .00007233  00000-0  34872-3 0  9998","l2":"2 42758  43.0152 336.3659 0031029  18.3386 341.8575 15.18758687503302"},{"id":"43641","name":"SAOCOM 1-A","type":"PAYLOAD","l1":"1 43641U 18076A   26205.33438998  .00000220  00000-0  34239-4 0  9991","l2":"2 43641  97.8897  31.5438 0001464  89.6173 270.5208 14.82150991421608"},{"id":"46265","name":"SAOCOM 1-B","type":"PAYLOAD","l1":"1 46265U 20059A   26205.29808909  .00000419  00000-0  59202-4 0  9995","l2":"2 46265  97.8903  30.6048 0001539  85.9651 274.1738 14.82148645318988"},{"id":"48274","name":"CSS (TIANHE-1)","type":"PAYLOAD","l1":"1 48274U 21035A   26204.73936075  .00010396  00000-0  13737-3 0  9993","l2":"2 48274  41.4707 100.0405 0002794 309.6650  50.3941 15.58301329298874"},{"id":"48865","name":"COSMOS 2550","type":"PAYLOAD","l1":"1 48865U 21056A   26205.32294285  .00006350  00000-0  19819-3 0  9990","l2":"2 48865  67.1437 347.5705 0008580 269.1208  90.8964 15.33903372284412"},{"id":"57800","name":"XRISM","type":"PAYLOAD","l1":"1 57800U 23137A   26205.14430697  .00005657  00000-0  30933-3 0  9999","l2":"2 57800  31.0020 120.1530 0007758 335.1147  24.9117 15.12727222158460"},{"id":"59588","name":"ACS 3","type":"PAYLOAD","l1":"1 59588U 24077B   26205.28847067  .00041294  00000-0  27998-1 0  9998","l2":"2 59588  97.1789 115.8723 0130759  26.2677 334.5044 13.95872753113211"},{"id":"61045","name":"SPACEMOBILE-003","type":"PAYLOAD","l1":"1 61045U 24163A   26205.21727541  .00001431  00000-0  78994-4 0  9996","l2":"2 61045  52.9691 139.1555 0003507 222.9316 137.1405 15.20665838103402"},{"id":"61046","name":"SPACEMOBILE-005","type":"PAYLOAD","l1":"1 61046U 24163B   26205.20082771  .00018580  00000-0  84903-3 0  9994","l2":"2 61046  52.9735 139.1924 0008082 222.5536 137.4832 15.20600133103397"},{"id":"61047","name":"SPACEMOBILE-001","type":"PAYLOAD","l1":"1 61047U 24163C   26205.19905241 -.00000212  00000-0  52172-5 0  9998","l2":"2 61047  52.9700 138.9039 0006560 220.2350 139.8159 15.20668192103399"},{"id":"61048","name":"SPACEMOBILE-002","type":"PAYLOAD","l1":"1 61048U 24163D   26205.24935661  .00026215  00000-0  11952-2 0  9992","l2":"2 61048  52.9772 138.7267 0004809 213.5116 146.5574 15.20485244103402"}]}